25851,GLOBALSTAR M035,1999,130.37,-1.0,-,51.99,Inactive,0,MEO,USA,Globalstar,Unknown,Unknown,Delta,1 25851U 99037A   23228.09211656 -.00000064  00000+0  32176-5 0  9990,2 25851  51.9946 111.5456 0014134 337.4821 170.5997 11.04526191 22115,11.04526191,0.0014134,MEO
25852,GLOBALSTAR M032,1999,128.68,-1.0,-,52.0,Inactive,0,MEO,USA,Globalstar,Unknown,Unknown,Delta,1 25852U 99037B   23229.04387793 -.00000188  00000+0 -38832-2 0  9993,2 25852  51.9985 340.8620 0008564 116.2263 243.9418 11.19048385 59823,11.19048385,0.0008564,MEO
25853,GLOBALSTAR M051,1999,126.07,-1.0,-,51.98,Inactive,0,LEO,USA,Globalstar,Unknown,Unknown,Delta,1 25853U 99037C   23228.35387015 -.00000076  00000+0 -88820-4 0  9994,2 25853  51.9752 219.1734 0001409  93.4024 266.6948 11.42189934 55752,11.42189934,0.0001409,LEO
25854,GLOBALSTAR M030,1999,124.67,-1.0,-,51.99,Inactive,0,LEO,USA,Globalstar,Unknown,Unknown,Delta,1 25854U 99037D   23229.29982491 -.00000081  00000+0 -12185-3 0  9994,2 25854  51.9885  65.5841 0003550 288.9732  71.0700 11.55089206 72734,11.55089206,0.000355,LEO
25872,GLOBALSTAR M048,1999,127.0,-1.0,-,51.94,Inactive,0,LEO,USA,Globalstar,Unknown,Unknown,Delta,1 25872U 99041A   23226.13919435 -.00000068  00000+0  48415-4 0  9997,2 25872  51.9358 133.5185 0013424  96.5132  47.4614 11.33838923 48529,11.33838923,0.0013424,LEO
25873,GLOBALSTAR M026,1999,130.1,-1.0,-,52.0,Inactive,0,MEO,USA,Globalstar,Unknown,Unknown,Delta,1 25873U 99041B   23226.81094958 -.00000028  00000+0  13351-2 0  9992,2 25873  51.9962 239.4557 0002036 231.1339 300.7582 11.06822871 74234,11.06822871,0.0002036,MEO
25874,GLOBALSTAR M043,1999,127.92,-1.0,-,51.94,Inactive,0,LEO,USA,Globalstar,Unknown,Unknown,Delta,1 25874U 99041C   23227.45063939 -.00000076  00000+0 -22151-3 0  9992,2 25874  51.9355 211.2804 0013065 247.2638 283.8365 11.25673481 47252,11.25673481,0.0013065,LEO
25875,GLOBALSTAR M028,1999,115.15,-1.0,-,51.96,Inactive,0,LEO,USA,Globalstar,Unknown,Unknown,Delta,1 25875U 99041D   23229.45666733 -.00000115  00000+0 -89821-4 0  9998,2 25875  51.9639  30.0032 0064199  57.6238 303.0815 12.50539211106411,12.50539211,0.0064199,LEO
